{"version": 0.6, "generator": "Overpass API 0.7.62.5 1bd436f1", "osm3s": {"timestamp_osm_base": "2025-04-20T08:09:43Z", "copyright": "The data included in this document is from www.openstreetmap.org. The data is made available under ODbL."}, "elements": [{"type": "node", "id": 808762381, "lat": 41.853498, "lon": 140.7199505, "tags": {"name": "\u9b5a\u9577", "shop": "supermarket", "source": "photo"}}, {"type": "node", "id": 1683083204, "lat": 41.8269109, "lon": 140.7459978}, {"type": "node", "id": 1683083207, "lat": 41.8272312, "lon": 140.7457261}, {"type": "node", "id": 1683083209, "lat": 41.8272783, "lon": 140.7467934}, {"type": "node", "id": 1683083211, "lat": 41.8274213, "lon": 140.7463763}, {"type": "node", "id": 1683083213, "lat": 41.8275011, "lon": 140.7463099}, {"type": "node", "id": 1683083214, "lat": 41.8275208, "lon": 140.7465915}, {"type": "node", "id": 2518990372, "lat": 41.8178273, "lon": 140.6976818, "tags": {"brand": "\u696d\u52d9\u30b9\u30fc\u30d1\u30fc", "name": "\u696d\u52d9\u30b9\u30fc\u30d1\u30fc", "name:en": "Gyomu Super", "name:ja": "\u696d\u52d9\u30b9\u30fc\u30d1\u30fc", "name:ja_rm": "Gyomu Supa", "shop": "supermarket"}}, {"type": "node", "id": 2664648154, "lat": 41.7733164, "lon": 140.7344879, "tags": {"addr:block_number": "1", "addr:city": "\u51fd\u9928\u5e02", "addr:housenumber": "2", "addr:province": "\u5317\u6d77\u9053", "addr:quarter": "\u65b0\u5ddd\u753a", "name": "\u51fd\u9928\u81ea\u7531\u5e02\u5834\u5354\u540c\u7d44\u5408", "name:en": "Hakodate Jiy\u016bichiba", "name:ko": "\ud558\ucf54\ub2e4\ud14c \uc2dc\uc7a5 \ud611\ub3d9 \uc870\ud569", "opening_hours": "Mo-Sa 08:00-17:30", "organic": "only", "phone": "+81 138 27 2200", "shop": "supermarket", "website": "hakodate-jiyuichiba.com"}}, {"type": "node", "id": 2666380808, "lat": 41.7965402, "lon": 140.7423321, "tags": {"name": "\u30e9\u30eb\u30ba\u30de\u30fc\u30c8\u30fb\u767d\u9ce5\u5e97", "shop": "supermarket", "source": "Bing", "wheelchair": "limited", "wheelchair:description": "\u5165\u308a\u53e3\u306f\u81ea\u52d5\u30c9\u30a2\n\u5185\u90e8\u3082\u6bb5\u5dee\u304c\u306a\u304f\u5229\u7528\u3057\u3084\u3059\u3044\n\u969c\u5bb3\u8005\u7528\u30c8\u30a4\u30ec\u306f\u3042\u308a\u307e\u305b\u3093"}}, {"type": "node", "id": 2666389639, "lat": 41.7980664, "lon": 140.7432074, "tags": {"name": "\u30b9\u30fc\u30d1\u30fc\u9b5a\u9577\u7530\u5bb6\u5e97", "name:en": "Super Fish Osadaga Branch", "name:ko": "\uc288\ud37c \uc0dd\uc120 \uc624\uc0ac\ub2e4\uac00\uc810", "shop": "supermarket", "source": "Bing"}}, {"type": "node", "id": 2666390818, "lat": 41.777339, "lon": 140.7412482}, {"type": "node", "id": 2666390819, "lat": 41.7768403, "lon": 140.7412791}, {"type": "node", "id": 2666390820, "lat": 41.776814, "lon": 140.7406178}, {"type": "node", "id": 2666698591, "lat": 41.7963125, "lon": 140.7367502}, {"type": "node", "id": 2666698593, "lat": 41.796396, "lon": 140.7371463}, {"type": "node", "id": 2666698594, "lat": 41.7961581, "lon": 140.737245}, {"type": "node", "id": 2666698595, "lat": 41.7960958, "lon": 140.7369184}, {"type": "node", "id": 2666698596, "lat": 41.7961166, "lon": 140.7369105}, {"type": "node", "id": 2666698597, "lat": 41.7960986, "lon": 140.7368248}, {"type": "node", "id": 2666698602, "lat": 41.7961137, "lon": 140.7367944}, {"type": "node", "id": 2668000894, "lat": 41.7763487, "lon": 140.7507755}, {"type": "node", "id": 2668000897, "lat": 41.7765339, "lon": 140.7507465}, {"type": "node", "id": 2668000899, "lat": 41.7765901, "lon": 140.7508836}, {"type": "node", "id": 2668000901, "lat": 41.7766705, "lon": 140.750919}, {"type": "node", "id": 2668000903, "lat": 41.7767966, "lon": 140.7513537}, {"type": "node", "id": 2668000905, "lat": 41.7764044, "lon": 140.7514151}, {"type": "node", "id": 2668000977, "lat": 41.7827967, "lon": 140.7586698}, {"type": "node", "id": 2668000979, "lat": 41.7821386, "lon": 140.7585336}, {"type": "node", "id": 2668000981, "lat": 41.7820911, "lon": 140.7590725}, {"type": "node", "id": 2668000983, "lat": 41.7827254, "lon": 140.7591887}, {"type": "node", "id": 2668025511, "lat": 41.7967402, "lon": 140.74213}, {"type": "node", "id": 2668025513, "lat": 41.796336, "lon": 140.7421265}, {"type": "node", "id": 2668025515, "lat": 41.796334, "lon": 140.7425331}, {"type": "node", "id": 2668025516, "lat": 41.7967382, "lon": 140.7425366}, {"type": "node", "id": 2668101803, "lat": 41.8052348, "lon": 140.7720426, "tags": {"name": "\u30b9\u30fc\u30d1\u30fc\u9b5a\u9577\u751f\u9bae\u5922\u5e02\u5834\u6771\u5c71\u5e97", "shop": "supermarket", "source": "Bing"}}, {"type": "node", "id": 2668118293, "lat": 41.8188989, "lon": 140.751152, "tags": {"name": "\u9053\u5357\u30e9\u30eb\u30ba\u30d3\u30c3\u30b0\u30cf\u30a6\u30b9\u30b9\u30c8\u30a2\u30fb\u30c9\u30de\u30fc\u30cb", "shop": "supermarket", "source": "Bing"}}, {"type": "node", "id": 2668135623, "lat": 41.8185597, "lon": 140.7417693, "tags": {"name": "\u30db\u30af\u30ec\u30f3\u30b7\u30e7\u30c3\u30d7\u51fd\u9928\u662d\u548c\u5e97", "shop": "supermarket", "source": "Bing", "toilets:wheelchair": "yes", "wheelchair": "yes"}}, {"type": "node", "id": 2668169458, "lat": 41.780431, "lon": 140.7634495}, {"type": "node", "id": 2668169459, "lat": 41.7802785, "lon": 140.7637928}, {"type": "node", "id": 2668169460, "lat": 41.7802383, "lon": 140.7637607}, {"type": "node", "id": 2668169461, "lat": 41.7801491, "lon": 140.7632243}, {"type": "node", "id": 2668169462, "lat": 41.7798511, "lon": 140.7638952}, {"type": "node", "id": 2668169463, "lat": 41.7801186, "lon": 140.7640302}, {"type": "node", "id": 2668171707, "lat": 41.7877865, "lon": 140.7652986}, {"type": "node", "id": 2668171708, "lat": 41.7875565, "lon": 140.7652053}, {"type": "node", "id": 2668171709, "lat": 41.7875198, "lon": 140.7653679}, {"type": "node", "id": 2668171710, "lat": 41.7877499, "lon": 140.7654612}, {"type": "node", "id": 2668180005, "lat": 41.7872493, "lon": 140.7714211}, {"type": "node", "id": 2668180006, "lat": 41.7873165, "lon": 140.7714722}, {"type": "node", "id": 2668180007, "lat": 41.7871124, "lon": 140.7719252}, {"type": "node", "id": 2668180008, "lat": 41.7868157, "lon": 140.7718085}, {"type": "node", "id": 2700668458, "lat": 41.7880885, "lon": 140.7670395, "tags": {"name": "\u30ad\u30e3\u30f3\u30fb\u30c9\u30a5\u51fd\u9928\u67cf\u6728\u5e97", "shop": "supermarket"}}, {"type": "node", "id": 3983331268, "lat": 41.781636, "lon": 140.7818049, "tags": {"name": "\u30b3\u30fc\u30d7\u3055\u3063\u307d\u308d\u6e6f\u5ddd\u5e97", "shop": "supermarket"}}, {"type": "node", "id": 3983334440, "lat": 41.764355, "lon": 140.7156008, "tags": {"addr:block_number": "17", "addr:city": "\u51fd\u9928\u5e02", "addr:housenumber": "13", "addr:postcode": "040-0053", "addr:province": "\u5317\u6d77\u9053", "addr:quarter": "\u672b\u5e83\u753a", "branch": "\u672b\u5e83\u897f\u5e97", "brand": "COOP SAPPORO", "brand:en": "COOP SAPPORO", "brand:ja": "\u30b3\u30fc\u30d7\u3055\u3063\u307d\u308d", "brand:wikidata": "Q11574624", "name": "\u30b3\u30fc\u30d7\u3055\u3063\u307d\u308d", "name:en": "Coop Sapporo", "name:ja": "\u30b3\u30fc\u30d7\u3055\u3063\u307d\u308d", "name:ja_rm": "K\u014dpu", "name:ko": "\ucf54\ud504 \uc0bf\ud3ec\ub85c \uc2a4\uc5d0\ud788\ub85c \ub2c8\uc2dc\uc810", "opening_hours": "09:00-21:45", "operator": "\u30b3\u30fc\u30d7\u3055\u3063\u307d\u308d", "payment:cash": "yes", "payment:credit_cards": "yes", "phone": "+81 138 23 1371", "shop": "supermarket", "url": "https://www.sapporo.coop/shop/detail.html?no=46", "website": "https://www.sapporo.coop/"}}, {"type": "node", "id": 3983335797, "lat": 41.848605, "lon": 140.7222884, "tags": {"name": "\u30b3\u30fc\u30d7\u3055\u3063\u307d\u308d\u3000\u6854\u6897\u5e97", "shop": "supermarket"}}, {"type": "node", "id": 3983337573, "lat": 41.7773162, "lon": 140.7405866}, {"type": "node", "id": 3983340957, "lat": 41.7855323, "lon": 140.7311324, "tags": {"addr:block_number": "1", "addr:city": "\u51fd\u9928\u5e02", "addr:housenumber": "16", "addr:province": "\u5317\u6d77\u9053", "addr:quarter": "\u4e07\u4ee3\u753a", "branch": "\u4e07\u4ee3\u5e97", "brand": "\u30de\u30c3\u30af\u30b9\u30d0\u30ea\u30e5", "brand:en": "MaxValu", "brand:ja": "\u30de\u30c3\u30af\u30b9\u30d0\u30ea\u30e5", "brand:wikidata": "Q11340427", "name": "\u30de\u30c3\u30af\u30b9\u30d0\u30ea\u30e5", "name:en": "MaxValu", "name:ja": "\u30de\u30c3\u30af\u30b9\u30d0\u30ea\u30e5", "name:ko": "\ub9db\ud06c\uc2a4\ubc14\ub958 \ub9cc\ub2e4\uc774\uc810", "phone": "+81 138 41 4007", "shop": "supermarket", "website": "mv-hokkaido.co.jp"}}, {"type": "node", "id": 4030807959, "lat": 41.8079538, "lon": 140.7638566}, {"type": "node", "id": 4030807960, "lat": 41.8077852, "lon": 140.7643179}, {"type": "node", "id": 4030807961, "lat": 41.8071446, "lon": 140.7639379}, {"type": "node", "id": 4030807962, "lat": 41.8072943, "lon": 140.7634839}, {"type": "node", "id": 4743785793, "lat": 41.7721197, "lon": 140.7055418, "tags": {"addr:block_number": "11", "addr:city": "\u51fd\u9928\u5e02", "addr:housenumber": "16", "addr:province": "\u5317\u6d77\u9053", "addr:quarter": "\u5f01\u5929\u753a", "branch": "\u5f01\u5929\u5e97", "brand": "\u30de\u30c3\u30af\u30b9\u30d0\u30ea\u30e5", "brand:en": "MaxValu", "brand:ja": "\u30de\u30c3\u30af\u30b9\u30d0\u30ea\u30e5", "brand:wikidata": "Q11340427", "brand:wikipedia": "en:MaxValu", "name": "\u30de\u30c3\u30af\u30b9\u30d0\u30ea\u30e5", "name:en": "MaxValu", "name:ja": "\u30de\u30c3\u30af\u30b9\u30d0\u30ea\u30e5", "name:ko": "MaxValu \ubca4\ud150\uc810", "opening_hours": "Mo-Su 07:00-22:00", "phone": "+81 138 26 9511", "shop": "supermarket", "website": "http://www.mv-hokkaido.co.jp/shop/benten/"}}, {"type": "node", "id": 4747437207, "lat": 41.7983916, "lon": 140.7644131, "tags": {"addr:block_number": "43", "addr:city": "\u51fd\u9928\u5e02", "addr:housenumber": "11", "addr:neighbourhood": "1\u4e01\u76ee", "addr:province": "\u5317\u6d77\u9053", "addr:quarter": "\u672c\u901a", "name": "\u30b9\u30fc\u30d1\u30fc\u9b5a\u9577\u672c\u901a\u5e97", "name:en": "Supermarket Honzan-dori Street", "name:ko": "\uc288\ud37c \uc0dd\uc120\uc7a5 \ud64d\ub3c4\ub9ac\uc810", "opening_hours": "Mo-Su 09:00-21:00", "phone": "+81 138 55 4411", "shop": "supermarket", "website": "http://www.uocho.co.jp/uochoinfo/tenpo/hondohri.htm"}}, {"type": "node", "id": 4748664202, "lat": 41.7989634, "lon": 140.7803455}, {"type": "node", "id": 4748664203, "lat": 41.7987642, "lon": 140.7805643}, {"type": "node", "id": 4748664204, "lat": 41.7986023, "lon": 140.7802991}, {"type": "node", "id": 4748664205, "lat": 41.7985548, "lon": 140.7803512}, {"type": "node", "id": 4748664206, "lat": 41.798489, "lon": 140.7802434}, {"type": "node", "id": 4748664207, "lat": 41.7984939, "lon": 140.7801751}, {"type": "node", "id": 4748664208, "lat": 41.7986398, "lon": 140.7800107}, {"type": "node", "id": 4748664209, "lat": 41.7983834, "lon": 140.7796112}, {"type": "node", "id": 4748664210, "lat": 41.7985857, "lon": 140.7793889}, {"type": "node", "id": 4748664211, "lat": 41.7988717, "lon": 140.7798573}, {"type": "node", "id": 4748664212, "lat": 41.7989707, "lon": 140.7800988}, {"type": "node", "id": 4748664213, "lat": 41.7988762, "lon": 140.7802027}, {"type": "node", "id": 4778057435, "lat": 41.8413175, "lon": 140.7369428}, {"type": "node", "id": 4778057436, "lat": 41.8409858, "lon": 140.7365177}, {"type": "node", "id": 4778057437, "lat": 41.8406131, "lon": 140.7370246}, {"type": "node", "id": 4778057438, "lat": 41.8408889, "lon": 140.7374028}, {"type": "node", "id": 4778057439, "lat": 41.8409079, "lon": 140.7373773}, {"type": "node", "id": 4778057440, "lat": 41.8409568, "lon": 140.7374403}, {"type": "node", "id": 4778374704, "lat": 41.8330713, "lon": 140.7413447}, {"type": "node", "id": 4778374705, "lat": 41.8330264, "lon": 140.7413977}, {"type": "node", "id": 4778374706, "lat": 41.8327503, "lon": 140.7415932}, {"type": "node", "id": 4778374707, "lat": 41.8327706, "lon": 140.7416425}, {"type": "node", "id": 4778374708, "lat": 41.8325489, "lon": 140.7418006}, {"type": "node", "id": 4778374712, "lat": 41.8328163, "lon": 140.7408341}, {"type": "node", "id": 4778374713, "lat": 41.832911, "lon": 140.7410852}, {"type": "node", "id": 4778374714, "lat": 41.8329602, "lon": 140.7410506}, {"type": "node", "id": 4780364815, "lat": 41.8406473, "lon": 140.7370715}, {"type": "node", "id": 4785766574, "lat": 41.8330448, "lon": 140.7412674}, {"type": "node", "id": 4785766577, "lat": 41.8323301, "lon": 140.7411947}, {"type": "node", "id": 4785766592, "lat": 41.832454, "lon": 140.741502}, {"type": "node", "id": 4785766593, "lat": 41.8325179, "lon": 140.7416607}, {"type": "node", "id": 4785766594, "lat": 41.8324997, "lon": 140.741674}, {"type": "node", "id": 4792162407, "lat": 41.7765413, "lon": 140.7730357, "tags": {"name": "\u9b5a\u9577 \u751f\u9bae\u5922\u5e02\u5834\u6e6f\u6d5c\u5e97", "shop": "supermarket"}}, {"type": "node", "id": 5280165128, "lat": 41.7775921, "lon": 140.7940629, "tags": {"addr:city": "\u51fd\u9928\u5e02", "addr:neighbourhood": "3\u4e01\u76ee", "addr:postcode": "042-0932", "addr:province": "\u5317\u6d77\u9053", "addr:quarter": "\u6e6f\u5ddd\u753a", "name": "\u30a4\u30aa\u30f3\u6e6f\u5ddd\u5e97", "name:en": "Aeon Yunokawa", "name:ja": "\u30a4\u30aa\u30f3\u6e6f\u5ddd\u5e97", "shop": "supermarket", "wikidata": "Q11316689"}}, {"type": "node", "id": 5280165528, "lat": 41.7801463, "lon": 140.8015281, "tags": {"name": "\u30d5\u30ec\u30b9\u30dd\u51fd\u9928\u6238\u5009", "name:ja": "\u30d5\u30ec\u30b9\u30dd\u51fd\u9928\u6238\u5009", "shop": "supermarket"}}, {"type": "node", "id": 5280165529, "lat": 41.8019886, "lon": 140.7349024, "tags": {"name:en": "bic camera", "shop": "supermarket"}}, {"type": "node", "id": 5445752333, "lat": 41.7890082, "lon": 140.7529837, "tags": {"name": "\u51fd\u9928\u672c\u753a\u5e02\u5834", "name:en": "Hakodate Honmachi Market", "name:ko": "\ud558\ucf54\ub2e4\ud14c \ud63c\ub9c8\uce58 \uc2dc\uc7a5", "phone": "+81 138 51 5418", "shop": "supermarket"}}, {"type": "node", "id": 5514578949, "lat": 41.7813263, "lon": 140.8104583}, {"type": "node", "id": 5514578952, "lat": 41.7813834, "lon": 140.8104087}, {"type": "node", "id": 5514578953, "lat": 41.7813863, "lon": 140.8103037}, {"type": "node", "id": 5514578954, "lat": 41.7813746, "lon": 140.8103057}, {"type": "node", "id": 5514578955, "lat": 41.7813924, "lon": 140.8101959}, {"type": "node", "id": 5514578957, "lat": 41.7811131, "lon": 140.8101602}, {"type": "node", "id": 5514578958, "lat": 41.7813341, "lon": 140.8104936}, {"type": "node", "id": 5514578959, "lat": 41.7812792, "lon": 140.8106359}, {"type": "node", "id": 5514578961, "lat": 41.7812506, "lon": 140.8105665}, {"type": "node", "id": 5514578962, "lat": 41.7811482, "lon": 140.8107378}, {"type": "node", "id": 5562139692, "lat": 41.7767917, "lon": 140.7512973}, {"type": "node", "id": 5562139693, "lat": 41.7767467, "lon": 140.7513044}, {"type": "node", "id": 5562139694, "lat": 41.7767355, "lon": 140.7511766}, {"type": "node", "id": 5562139695, "lat": 41.7766935, "lon": 140.7511832}, {"type": "node", "id": 5562139696, "lat": 41.7765943, "lon": 140.750931}, {"type": "node", "id": 5562139697, "lat": 41.7765464, "lon": 140.7508904}, {"type": "node", "id": 5564551379, "lat": 41.7799783, "lon": 140.7639967}, {"type": "node", "id": 5564551380, "lat": 41.780004, "lon": 140.7639386}, {"type": "node", "id": 5569628877, "lat": 41.7768285, "lon": 140.7409384}, {"type": "node", "id": 5569628878, "lat": 41.776716, "lon": 140.7409454}, {"type": "node", "id": 5569628879, "lat": 41.7767104, "lon": 140.7407814}, {"type": "node", "id": 5569628880, "lat": 41.7768194, "lon": 140.7407746}, {"type": "node", "id": 5598427295, "lat": 41.7801928, "lon": 140.7355418}, {"type": "node", "id": 5598427296, "lat": 41.7806358, "lon": 140.7359022}, {"type": "node", "id": 5598427297, "lat": 41.7805815, "lon": 140.7358374}, {"type": "node", "id": 5598427298, "lat": 41.7803749, "lon": 140.7352671}, {"type": "node", "id": 5598427299, "lat": 41.7803263, "lon": 140.7352092}, {"type": "node", "id": 5598427300, "lat": 41.7805737, "lon": 140.735996}, {"type": "node", "id": 5598427301, "lat": 41.7808782, "lon": 140.7353898}, {"type": "node", "id": 5607462441, "lat": 41.7824524, "lon": 140.7591548}, {"type": "node", "id": 5607462442, "lat": 41.7825718, "lon": 140.7591795}, {"type": "node", "id": 5607462443, "lat": 41.7825743, "lon": 140.7591575}, {"type": "node", "id": 5607462444, "lat": 41.7824554, "lon": 140.7591284}, {"type": "node", "id": 5607462445, "lat": 41.7821846, "lon": 140.7590919}, {"type": "node", "id": 5607462446, "lat": 41.7821868, "lon": 140.7590728}, {"type": "node", "id": 5607462447, "lat": 41.7821283, "lon": 140.7586229}, {"type": "node", "id": 5607462448, "lat": 41.7821425, "lon": 140.7586259}, {"type": "node", "id": 5607462449, "lat": 41.7827425, "lon": 140.75904}, {"type": "node", "id": 5607462450, "lat": 41.7827538, "lon": 140.7590424}, {"type": "node", "id": 5647949797, "lat": 41.7871984, "lon": 140.7712545}, {"type": "node", "id": 5647949798, "lat": 41.7871133, "lon": 140.7714413}, {"type": "node", "id": 5647949799, "lat": 41.7872911, "lon": 140.7713291}, {"type": "node", "id": 5647949800, "lat": 41.7870048, "lon": 140.7713609}, {"type": "node", "id": 5647949801, "lat": 41.787059, "lon": 140.7719025}, {"type": "node", "id": 5647949802, "lat": 41.7869624, "lon": 140.7720197}, {"type": "node", "id": 5685411370, "lat": 41.7962664, "lon": 140.7367365}, {"type": "node", "id": 5685411371, "lat": 41.7961185, "lon": 140.7368172}, {"type": "node", "id": 5685411372, "lat": 41.7961451, "lon": 140.7371836}, {"type": "node", "id": 5685411373, "lat": 41.7961512, "lon": 140.7371813}, {"type": "node", "id": 5685411374, "lat": 41.7962025, "lon": 140.7372281}, {"type": "node", "id": 5685411375, "lat": 41.7962009, "lon": 140.7372203}, {"type": "node", "id": 5685411376, "lat": 41.7962725, "lon": 140.7367654}, {"type": "node", "id": 5688127593, "lat": 41.7805031, "lon": 140.7349426}, {"type": "node", "id": 5696825562, "lat": 41.8079064, "lon": 140.7640003}, {"type": "node", "id": 5696825563, "lat": 41.8078926, "lon": 140.7639921}, {"type": "node", "id": 5696825564, "lat": 41.8078253, "lon": 140.7637989}, {"type": "node", "id": 5696825565, "lat": 41.8078304, "lon": 140.7637835}, {"type": "node", "id": 5807275482, "lat": 41.8271415, "lon": 140.7458007}, {"type": "node", "id": 5807275483, "lat": 41.8271342, "lon": 140.7457848}, {"type": "node", "id": 5807275484, "lat": 41.8270026, "lon": 140.7461963}, {"type": "node", "id": 5807275485, "lat": 41.8269963, "lon": 140.7459267}, {"type": "node", "id": 5807275486, "lat": 41.8269872, "lon": 140.7459071}, {"type": "node", "id": 5807275487, "lat": 41.826986, "lon": 140.7462101}, {"type": "node", "id": 5807275488, "lat": 41.8271052, "lon": 140.7464681}, {"type": "node", "id": 5807275489, "lat": 41.8271216, "lon": 140.7464544}, {"type": "node", "id": 8327464897, "lat": 41.7887283, "lon": 140.7365957, "tags": {"name": "\u9152\u306e\u3084\u307e\u306f\u3061", "shop": "supermarket"}}, {"type": "node", "id": 8327464906, "lat": 41.7885532, "lon": 140.737993, "tags": {"name": "\u5bb6\u5177\u306e\u30e0\u30ed\u30b6\u30ad", "shop": "supermarket"}}, {"type": "node", "id": 8336739775, "lat": 41.7961312, "lon": 140.7330396, "tags": {"name": "\u91d1\u4e38\u5bcc\u8cb4\u5802", "shop": "supermarket"}}, {"type": "node", "id": 9121602478, "lat": 41.779117, "lon": 140.8010348, "tags": {"name": "\u30b9\u30fc\u30d1\u30fc\u30a2\u30fc\u30af\u30b9\u6238\u5009\u5e97", "name:en": "Arcs", "name:ja": "\u30b9\u30fc\u30d1\u30fc\u30a2\u30fc\u30af\u30b9\u6238\u5009\u5e97", "shop": "supermarket"}}, {"type": "node", "id": 9774638829, "lat": 41.7743726, "lon": 140.7309315}, {"type": "node", "id": 9774638830, "lat": 41.7744366, "lon": 140.7307856}, {"type": "node", "id": 9774638831, "lat": 41.7743438, "lon": 140.7307084}, {"type": "node", "id": 9774638832, "lat": 41.7744462, "lon": 140.7304702}, {"type": "node", "id": 9774638833, "lat": 41.7740157, "lon": 140.7301183}, {"type": "node", "id": 9774638834, "lat": 41.7739885, "lon": 140.7301784}, {"type": "node", "id": 9774638835, "lat": 41.7739133, "lon": 140.7301247}, {"type": "node", "id": 9774638836, "lat": 41.7737789, "lon": 140.7304487}, {"type": "node", "id": 9937621194, "lat": 41.7822951, "lon": 140.7482601}, {"type": "node", "id": 9937621195, "lat": 41.7818211, "lon": 140.7489398}, {"type": "node", "id": 9937621196, "lat": 41.7826186, "lon": 140.7490622}, {"type": "node", "id": 9937621197, "lat": 41.7825626, "lon": 140.7482394}, {"type": "node", "id": 9950710504, "lat": 41.7805991, "lon": 140.7445769, "tags": {"name": "\u30ad\u30f3\u30b0\u30b9\u30c8\u30a2", "shop": "supermarket"}}, {"type": "node", "id": 10010178398, "lat": 41.8215265, "lon": 140.7123202, "tags": {"addr:block_number": "44", "addr:city": "\u5317\u6597\u5e02", "addr:housenumber": "1", "addr:neighbourhood": "4\u4e01\u76ee", "addr:postcode": "049-0111", "addr:province": "\u5317\u6d77\u9053", "addr:quarter": "\u4e03\u91cd\u6d5c", "branch": "\u4e0a\u78ef\u5e97", "brand": "\u30a4\u30aa\u30f3", "brand:en": "AEON", "brand:ja": "\u30a4\u30aa\u30f3", "brand:wikidata": "Q11285951", "name": "\u30a4\u30aa\u30f3", "name:en": "AEON", "name:ja": "\u30a4\u30aa\u30f3", "opening_hours": "08:00-22:00", "operator": "\u30a4\u30aa\u30f3\u5317\u6d77\u9053", "parking": "rooftop", "payment:cash": "yes", "payment:credit_cards": "yes", "payment:id": "yes", "payment:quicpay": "yes", "payment:waon": "yes", "phone": "+81 138 49 8188", "shop": "supermarket", "url": "https://www.aeon-hokkaido.jp/aeon/shop/kamiiso/", "website": "https://www.aeon-hokkaido.jp/"}}, {"type": "node", "id": 10703719268, "lat": 41.7818249, "lon": 140.7491067}, {"type": "node", "id": 12200417430, "lat": 41.7831243, "lon": 140.7980477}, {"type": "node", "id": 12200417431, "lat": 41.7827274, "lon": 140.798036}, {"type": "node", "id": 12200417432, "lat": 41.7827183, "lon": 140.798987}, {"type": "node", "id": 12200417433, "lat": 41.7831186, "lon": 140.7989734}, {"type": "way", "id": 155971440, "nodes": [1683083207, 5807275482, 5807275483, 5807275486, 5807275485, 1683083204, 5807275484, 5807275487, 5807275488, 5807275489, 1683083209, 1683083214, 1683083211, 1683083213, 1683083207], "tags": {"branch": "\u5317\u7f8e\u539f\u5e97", "brand": "\u30c8\u30e9\u30a4\u30a2\u30eb", "brand:en": "Trial", "brand:ja": "\u30c8\u30e9\u30a4\u30a2\u30eb", "brand:wikidata": "Q11321723", "building": "commercial", "name": "\u30c8\u30e9\u30a4\u30a2\u30eb", "name:en": "Trial", "name:ja": "\u30c8\u30e9\u30a4\u30a2\u30eb", "shop": "supermarket", "source": "bing"}}, {"type": "way", "id": 261021006, "nodes": [3983337573, 2666390818, 2666390819, 5569628877, 5569628878, 5569628879, 5569628880, 2666390820, 3983337573], "tags": {"addr:block_number": "4", "addr:city": "\u51fd\u9928\u5e02", "addr:housename": "\u30de\u30c3\u30af\u30b9\u30d0\u30ea\u30e5\u5800\u5ddd\u5e97", "addr:housenumber": "5", "addr:province": "\u5317\u6d77\u9053", "addr:quarter": "\u5800\u5ddd\u753a", "brand": "\u30de\u30c3\u30af\u30b9\u30d0\u30ea\u30e5", "brand:en": "MaxValu", "brand:ja": "\u30de\u30c3\u30af\u30b9\u30d0\u30ea\u30e5", "brand:wikidata": "Q11340427", "brand:wikipedia": "en:MaxValu", "building": "yes", "building:levels": "1", "name": "\u30de\u30c3\u30af\u30b9\u30d0\u30ea\u30e5", "name:de": "MaxValu", "name:en": "MaxValu", "name:ja": "\u30de\u30c3\u30af\u30b9\u30d0\u30ea\u30e5", "name:ko": "MaxValu \ud638\ub9ac\uce74\uc640\uc810", "note": "\u6577\u5730\u5185\u901a\u8def\uff1a\u6bb5\u5dee\u306a\u3057 \u969c\u5bb3\u8005\u7528\u30c8\u30a4\u30ec\uff1a\u30aa\u30b9\u30c8\u30e1\u30a4\u30c8\u3042\u308a\u3001\u8d64\u3061\u3083\u3093\u6905\u5b50\u3001\u8d64\u3061\u3083\u3093\u30d9\u30c3\u30c9\u3001\u624b\u3059\u308a\u56fa\u5b9a \u55b6\u696d\u6642\u9593\uff1a\uff17\uff1a\uff10\uff10\uff0d\uff12\uff13\uff1a\uff10\uff10", "opening_hours": "Mo-Su 07:00-23:00", "phone": "+81 138 33 5540", "shop": "supermarket", "source": "Bing", "toilets:wheelchair": "yes", "website": "http://www.mv-hokkaido.co.jp/04_shop/tenpo.php#shiribeshi", "wheelchair": "yes", "\u6577\u5730\u5185\u901a\u8def": "\u6bb5\u5dee\u306a\u3057", "\u969c\u5bb3\u8005\u7528\u30c8\u30a4\u30ec": "yes", "\u969c\u5bb3\u8005\u7528\u99d0\u8eca\u5834": "\uff12\u53f0", "\u99d0\u8eca\u5834": "yes"}}, {"type": "way", "id": 261053275, "nodes": [2666698591, 2666698593, 5685411375, 5685411374, 2666698594, 5685411372, 5685411373, 2666698595, 2666698596, 2666698597, 5685411371, 2666698602, 5685411370, 5685411376, 2666698591], "tags": {"building": "retail", "name": "\u5143\u6c17\u5e02\u5834", "shop": "supermarket", "source": "Bing", "wheelchair": "yes", "wheelchair:description": "\u5165\u308a\u53e3\u306f\u81ea\u52d5\u30c9\u30a2"}}, {"type": "way", "id": 261170930, "nodes": [2668000894, 2668000897, 5562139697, 2668000899, 5562139696, 2668000901, 5562139695, 5562139694, 5562139693, 5562139692, 2668000903, 2668000905, 2668000894], "tags": {"addr:block_number": "17", "addr:city": "\u51fd\u9928\u5e02", "addr:housenumber": "8", "addr:province": "\u5317\u6d77\u9053", "addr:quarter": "\u65e5\u4e43\u51fa\u753a", "building": "retail", "name": "\u30e9\u30eb\u30ba\u30de\u30fc\u30c8\u65e5\u4e43\u51fa\u5e97", "name:ko": "\ub77c\ub8e8\uc988\ub9c8\ud2b8 \ud788\ub178\ub370\uc810", "phone": "+81 138 31 0202", "shop": "supermarket", "source": "Bing", "website": "arcs-g.co.jp"}}, {"type": "way", "id": 261170935, "nodes": [2668000977, 2668000979, 5607462447, 5607462448, 2668000981, 5607462445, 5607462446, 5607462444, 5607462441, 5607462442, 5607462443, 2668000983, 5607462449, 5607462450, 2668000977], "tags": {"addr:block_number": "8", "addr:city": "\u51fd\u9928\u5e02", "addr:housenumber": "1", "addr:province": "\u5317\u6d77\u9053", "addr:quarter": "\u4eba\u898b\u753a", "building": "yes", "name": "\u30b3\u30fc\u30d7\u3055\u3063\u307d\u308d\u3072\u3068\u307f\u5e97", "name:en": "Cope Sapporo Corporation", "name:ko": "\ucf54\ud504 \uc0bf\ud3ec\ub85c \ud788\ud1a0\ubbf8\uc810", "opening_hours": "Mo-Su 09:00-21:45", "phone": "+81 138 54 9425", "shop": "supermarket", "source": "bing", "website": "https://www.sapporo.coop/shop/detail.html?no=41"}}, {"type": "way", "id": 261174488, "nodes": [2668025511, 2668025513, 2668025515, 2668025516, 2668025511], "tags": {"branch": "\u767d\u9ce5\u5e97", "brand": "RALSE MART", "brand:en": "RALSE MART", "brand:ja": "\u30e9\u30eb\u30ba\u30de\u30fc\u30c8", "brand:wikidata": "Q11347482", "building": "retail", "name": "\u30e9\u30eb\u30ba\u30de\u30fc\u30c8", "name:en": "Ralse Mart", "name:ja": "\u30e9\u30eb\u30ba\u30de\u30fc\u30c8", "shop": "supermarket", "source": "Bing", "wheelchair": "yes"}}, {"type": "way", "id": 261184871, "nodes": [2668169458, 2668169459, 2668169460, 2668169463, 5564551380, 5564551379, 2668169462, 2668169461, 2668169458], "tags": {"addr:block_number": "8", "addr:city": "\u51fd\u9928\u5e02", "addr:housenumber": "8", "addr:province": "\u5317\u6d77\u9053", "addr:quarter": "\u4e43\u6728\u753a", "building": "retail", "name": "\u751f\u9bae\u4e43\u6728\u5e02\u5834", "name:en": "Fresh green market", "name:ko": "\uc2e0\uc120 \ub178\uae30 \uc2dc\uc7a5", "opening_hours": "Mo-Su 10:00-18:00", "phone": "+81 138 55 6622", "shop": "supermarket", "source": "Bing", "website": "http://www.uocho.co.jp/uochoinfo/tenpo.htm"}}, {"type": "way", "id": 261185021, "nodes": [2668171707, 2668171708, 2668171709, 2668171710, 2668171707], "tags": {"addr:housenumber": "\u5317\u6d77\u9053\u51fd\u9928\u5e02\u67cf\u6728\u753a1", "building": "retail", "building:levels": "2", "name": "\u51fd\u9928\u307e\u308b\u304b\u3064\u6c34\u7523\u67cf\u6728\u5e97", "name:en": "Hakodate Maru and fishery Kashiwagi store", "name:ko": "\ud558\ucf54\ub2e4\ud14c \ud558\ub8e8\ud558\uace0 \uc218\uc0b0", "shop": "supermarket", "source": "Bing"}}, {"type": "way", "id": 261185946, "nodes": [2668180005, 2668180006, 2668180007, 5647949801, 5647949802, 2668180008, 5647949800, 5647949798, 5647949797, 5647949799, 2668180005], "tags": {"addr:housenumber": "\u5317\u6d77\u9053\u51fd\u9928\u5e02\u6df1\u5800\u753a3-20", "branch": "\u6df1\u5800\u5e97", "brand": "\u30de\u30c3\u30af\u30b9\u30d0\u30ea\u30e5", "brand:en": "Maxvalu Tokai", "brand:ja": "\u30de\u30c3\u30af\u30b9\u30d0\u30ea\u30e5", "brand:wikidata": "Q1960109", "building": "yes", "name": "\u30de\u30c3\u30af\u30b9\u30d0\u30ea\u30e5", "name:en": "Maxvalu Tokai", "name:ja": "\u30de\u30c3\u30af\u30b9\u30d0\u30ea\u30e5", "name:ko": "\ub9db\uc758 \ub3c4\uc2dc \ud6c4\uce74\ubcf4\ub9ac\uc810", "opening_hours": "Mo-Su 09:00-21:45", "phone": "+81 138 85 8016", "shop": "supermarket"}}, {"type": "way", "id": 400530821, "nodes": [4030807959, 5696825562, 5696825563, 4030807960, 4030807961, 4030807962, 5696825564, 5696825565, 4030807959], "tags": {"branch": "\u304b\u3058\u5e97", "brand": "COOP SAPPORO", "brand:en": "COOP SAPPORO", "brand:ja": "\u30b3\u30fc\u30d7\u3055\u3063\u307d\u308d", "brand:wikidata": "Q11574624", "building": "retail", "name": "\u30b3\u30fc\u30d7\u3055\u3063\u307d\u308d", "name:en": "Coop Sapporo", "name:ja": "\u30b3\u30fc\u30d7\u3055\u3063\u307d\u308d", "shop": "supermarket"}}, {"type": "way", "id": 481997324, "nodes": [4748664202, 4748664203, 4748664204, 4748664205, 4748664206, 4748664207, 4748664208, 4748664209, 4748664210, 4748664211, 4748664212, 4748664213, 4748664202], "tags": {"branch": "\u5c71\u306e\u624b\u5e97", "brand": "COOP SAPPORO", "brand:en": "COOP SAPPORO", "brand:ja": "\u30b3\u30fc\u30d7\u3055\u3063\u307d\u308d", "brand:wikidata": "Q11574624", "building": "yes", "name": "\u30b3\u30fc\u30d7\u3055\u3063\u307d\u308d", "name:en": "Coop Sapporo", "name:ja": "\u30b3\u30fc\u30d7\u3055\u3063\u307d\u308d", "shop": "supermarket"}}, {"type": "way", "id": 485048301, "nodes": [4778057435, 4778057436, 4778057437, 4780364815, 4778057438, 4778057439, 4778057440, 4778057435], "tags": {"addr:block_number": "\u77f3\u5ddd\u753a", "addr:city": "\u51fd\u9928\u5e02", "addr:housenumber": "226-6", "addr:postcode": "041-0802", "addr:province": "\u5317\u6d77\u9053", "building": "yes", "name": "\u30de\u30c3\u30af\u30b9\u30d0\u30ea\u30e5 \u77f3\u5ddd\u5e97", "opening_hours": "8:00-23:00", "shop": "supermarket"}}, {"type": "way", "id": 485071010, "nodes": [4778374704, 4778374705, 4778374706, 4778374707, 4778374708, 4785766594, 4785766593, 4785766592, 4785766577, 4778374712, 4778374713, 4778374714, 4785766574, 4778374704], "tags": {"addr:block_number": "\u77f3\u5ddd\u753a", "addr:city": "\u51fd\u9928\u5e02", "addr:housenumber": "457-2", "addr:postcode": "041-0802", "addr:province": "\u5317\u6d77\u9053", "building": "yes", "name": "\u30b3\u30fc\u30d7\u3055\u3063\u307d\u308d \u3044\u3057\u304b\u308f\u5e97", "opening_hours": "9:30-21:45", "shop": "supermarket"}}, {"type": "way", "id": 574546353, "nodes": [5514578957, 5514578955, 5514578953, 5514578954, 5514578952, 5514578949, 5514578958, 5514578961, 5514578959, 5514578962, 5514578957], "tags": {"branch": "\u4e0a\u6e6f\u5ddd\u5e97", "building": "yes", "name": "\u3052\u3093\u304d\u5e02\u5834", "opening_hours": "9:30-18:30", "shop": "supermarket", "source": "Japan GSI ortho Imagery"}}, {"type": "way", "id": 585891344, "nodes": [5688127593, 5598427301, 5598427297, 5598427296, 5598427300, 5598427295, 5598427298, 5598427299, 5688127593], "tags": {"brand": "SUPER ARCS", "brand:en": "SUPER ARCS", "brand:ja": "\u30b9\u30fc\u30d1\u30fc\u30a2\u30fc\u30af\u30b9", "brand:wikidata": "Q17190570", "building": "yes", "name": "\u30b9\u30fc\u30d1\u30fc\u30a2\u30fc\u30af\u30b9", "name:en": "Super Arcs", "name:ja": "\u30b9\u30fc\u30d1\u30fc\u30a2\u30fc\u30af\u30b9", "shop": "supermarket", "source": "Bing"}}, {"type": "way", "id": 1064297315, "nodes": [9774638829, 9774638830, 9774638831, 9774638832, 9774638833, 9774638834, 9774638835, 9774638836, 9774638829], "tags": {"building": "yes", "name": "\u30de\u30c3\u30af\u30b9\u30d0\u30ea\u30e5\u82e5\u677e\u5e97", "shop": "supermarket"}}, {"type": "way", "id": 1084460409, "nodes": [9937621197, 9937621196, 10703719268, 9937621195, 9937621194, 9937621197], "tags": {"brand": "SUPER ARCS", "brand:en": "SUPER ARCS", "brand:ja": "\u30b9\u30fc\u30d1\u30fc\u30a2\u30fc\u30af\u30b9", "brand:wikidata": "Q17190570", "building": "yes", "name": "\u30b9\u30fc\u30d1\u30fc\u30a2\u30fc\u30af\u30b9", "name:en": "Super Arcs", "name:ja": "\u30b9\u30fc\u30d1\u30fc\u30a2\u30fc\u30af\u30b9", "shop": "supermarket"}}, {"type": "way", "id": 1318241156, "nodes": [12200417430, 12200417431, 12200417432, 12200417433, 12200417430], "tags": {"building": "yes", "name": "\u30b5\u30c4\u30c9\u30e9\u51fd\u9928\u6238\u5009\u5e97", "shop": "supermarket"}}]}